{
  "type": "FeatureCollection",
  "features": [
    {
      "type": "Feature",
      "properties": {
        "norad_id": 33986,
        "name": "COSMOS 2251 DEB",
        "group": "cosmos-2251-debris",
        "lat": -71.30078492241542,
        "lon": -130.3102388617386,
        "alt_km": 748.803256947208,
        "timestamp": "2025-12-20T22:39:11.018351+00:00",
        "meta_object_name": "COSMOS 2251 DEB",
        "meta_object_id": "1993-036FV",
        "meta_epoch": "2025-12-20T06:58:35.292000",
        "meta_mean_motion": 14.43238479,
        "meta_eccentricity": 0.00408636,
        "meta_inclination": 74.0371,
        "meta_ra_of_asc_node": 288.6464,
        "meta_arg_of_pericenter": 359.6902,
        "meta_mean_anomaly": 128.2548,
        "meta_ephemeris_type": 0,
        "meta_classification_type": "U",
        "meta_norad_cat_id": 33986,
        "meta_element_set_no": 999,
        "meta_rev_at_epoch": 88137,
        "meta_bstar": 0.00050182294,
        "meta_mean_motion_dot": 1.679e-05,
        "meta_mean_motion_ddot": 0,
        "tle_line1": "1 33986U 93036FV  25354.29068625  .00001679  00000+0  50182-3 0  9998",
        "tle_line2": "2 33986  74.0371 288.6464 0040863 359.6902 128.2548 14.43238479881378"
      },
      "geometry": {
        "type": "Point",
        "coordinates": [
          -130.3102388617386,
          -71.30078492241542
        ]
      }
    },
    {
      "type": "Feature",
      "properties": {
        "norad_id": 33990,
        "name": "COSMOS 2251 DEB",
        "group": "cosmos-2251-debris",
        "lat": 70.34123260770615,
        "lon": 39.025571316975,
        "alt_km": 1363.4346727426564,
        "timestamp": "2025-12-20T22:39:11.018361+00:00",
        "meta_object_name": "COSMOS 2251 DEB",
        "meta_object_id": "1993-036FZ",
        "meta_epoch": "2025-12-20T12:23:48.287904",
        "meta_mean_motion": 13.50006686,
        "meta_eccentricity": 0.04074231,
        "meta_inclination": 73.9284,
        "meta_ra_of_asc_node": 273.5091,
        "meta_arg_of_pericenter": 292.4197,
        "meta_mean_anomaly": 252.0195,
        "meta_ephemeris_type": 0,
        "meta_classification_type": "U",
        "meta_norad_cat_id": 33990,
        "meta_element_set_no": 999,
        "meta_rev_at_epoch": 82834,
        "meta_bstar": 0.00064959557,
        "meta_mean_motion_dot": 6.68e-06,
        "meta_mean_motion_ddot": 0,
        "tle_line1": "1 33990U 93036FZ  25354.51653111  .00000668  00000+0  64960-3 0  9994",
        "tle_line2": "2 33990  73.9284 273.5091 0407423 292.4197 252.0195 13.50006686828344"
      },
      "geometry": {
        "type": "Point",
        "coordinates": [
          39.025571316975,
          70.34123260770615
        ]
      }
    },
    {
      "type": "Feature",
      "properties": {
        "norad_id": 33992,
        "name": "COSMOS 2251 DEB",
        "group": "cosmos-2251-debris",
        "lat": 73.22550810803368,
        "lon": 70.03180266560997,
        "alt_km": 630.8852210523382,
        "timestamp": "2025-12-20T22:39:11.018370+00:00",
        "meta_object_name": "COSMOS 2251 DEB",
        "meta_object_id": "1993-036GB",
        "meta_epoch": "2025-12-20T09:52:54.873408",
        "meta_mean_motion": 14.66269903,
        "meta_eccentricity": 0.00517238,
        "meta_inclination": 74.024,
        "meta_ra_of_asc_node": 322.9373,
        "meta_arg_of_pericenter": 78.4176,
        "meta_mean_anomaly": 88.8057,
        "meta_ephemeris_type": 0,
        "meta_classification_type": "U",
        "meta_norad_cat_id": 33992,
        "meta_element_set_no": 999,
        "meta_rev_at_epoch": 89237,
        "meta_bstar": 0.00053100877,
        "meta_mean_motion_dot": 2.955e-05,
        "meta_mean_motion_ddot": 0,
        "tle_line1": "1 33992U 93036GB  25354.41174622  .00002955  00000+0  53101-3 0  9996",
        "tle_line2": "2 33992  74.0240 322.9373 0051723  78.4176  88.8057 14.66269903892376"
      },
      "geometry": {
        "type": "Point",
        "coordinates": [
          70.03180266560997,
          73.22550810803368
        ]
      }
    },
    {
      "type": "Feature",
      "properties": {
        "norad_id": 33994,
        "name": "COSMOS 2251 DEB",
        "group": "cosmos-2251-debris",
        "lat": -10.490251218389048,
        "lon": 172.19052335472202,
        "alt_km": 745.49255734693,
        "timestamp": "2025-12-20T22:39:11.018380+00:00",
        "meta_object_name": "COSMOS 2251 DEB",
        "meta_object_id": "1993-036GD",
        "meta_epoch": "2025-12-20T14:39:56.652768",
        "meta_mean_motion": 14.41218978,
        "meta_eccentricity": 0.00238797,
        "meta_inclination": 74.0415,
        "meta_ra_of_asc_node": 175.8434,
        "meta_arg_of_pericenter": 308.8186,
        "meta_mean_anomaly": 114.1768,
        "meta_ephemeris_type": 0,
        "meta_classification_type": "U",
        "meta_norad_cat_id": 33994,
        "meta_element_set_no": 999,
        "meta_rev_at_epoch": 88533,
        "meta_bstar": 6.0940967e-05,
        "meta_mean_motion_dot": 1.71e-06,
        "meta_mean_motion_ddot": 0,
        "tle_line1": "1 33994U 93036GD  25354.61107237  .00000171  00000+0  60941-4 0  9997",
        "tle_line2": "2 33994  74.0415 175.8434 0023879 308.8186 114.1768 14.41218978885336"
      },
      "geometry": {
        "type": "Point",
        "coordinates": [
          172.19052335472202,
          -10.490251218389048
        ]
      }
    },
    {
      "type": "Feature",
      "properties": {
        "norad_id": 33995,
        "name": "COSMOS 2251 DEB",
        "group": "cosmos-2251-debris",
        "lat": -52.98262910945462,
        "lon": -53.38616118103179,
        "alt_km": 803.1909850482289,
        "timestamp": "2025-12-20T22:39:11.018389+00:00",
        "meta_object_name": "COSMOS 2251 DEB",
        "meta_object_id": "1993-036GE",
        "meta_epoch": "2025-12-20T09:50:53.769120",
        "meta_mean_motion": 14.34807762,
        "meta_eccentricity": 0.00595956,
        "meta_inclination": 74.0617,
        "meta_ra_of_asc_node": 105.3188,
        "meta_arg_of_pericenter": 117.5875,
        "meta_mean_anomaly": 243.1347,
        "meta_ephemeris_type": 0,
        "meta_classification_type": "U",
        "meta_norad_cat_id": 33995,
        "meta_element_set_no": 999,
        "meta_rev_at_epoch": 87629,
        "meta_bstar": 0.00058743602,
        "meta_mean_motion_dot": 1.675e-05,
        "meta_mean_motion_ddot": 0,
        "tle_line1": "1 33995U 93036GE  25354.41034455  .00001675  00000+0  58744-3 0  9994",
        "tle_line2": "2 33995  74.0617 105.3188 0059595 117.5875 243.1347 14.34807762876297"
      },
      "geometry": {
        "type": "Point",
        "coordinates": [
          -53.38616118103179,
          -52.98262910945462
        ]
      }
    },
    {
      "type": "Feature",
      "properties": {
        "norad_id": 33999,
        "name": "COSMOS 2251 DEB",
        "group": "cosmos-2251-debris",
        "lat": 27.30987902430741,
        "lon": -137.01917296845787,
        "alt_km": 610.7590195060402,
        "timestamp": "2025-12-20T22:39:11.018398+00:00",
        "meta_object_name": "COSMOS 2251 DEB",
        "meta_object_id": "1993-036GJ",
        "meta_epoch": "2025-12-20T01:29:05.167968",
        "meta_mean_motion": 14.83497766,
        "meta_eccentricity": 0.00444006,
        "meta_inclination": 73.9175,
        "meta_ra_of_asc_node": 216.1725,
        "meta_arg_of_pericenter": 109.5424,
        "meta_mean_anomaly": 251.0556,
        "meta_ephemeris_type": 0,
        "meta_classification_type": "U",
        "meta_norad_cat_id": 33999,
        "meta_element_set_no": 999,
        "meta_rev_at_epoch": 89359,
        "meta_bstar": 0.00071403692,
        "meta_mean_motion_dot": 5.944e-05,
        "meta_mean_motion_ddot": 0,
        "tle_line1": "1 33999U 93036GJ  25354.06186537  .00005944  00000+0  71404-3 0  9999",
        "tle_line2": "2 33999  73.9175 216.1725 0044400 109.5424 251.0556 14.83497766893591"
      },
      "geometry": {
        "type": "Point",
        "coordinates": [
          -137.01917296845787,
          27.30987902430741
        ]
      }
    },
    {
      "type": "Feature",
      "properties": {
        "norad_id": 34001,
        "name": "COSMOS 2251 DEB",
        "group": "cosmos-2251-debris",
        "lat": 71.86230949031271,
        "lon": 25.614394214798082,
        "alt_km": 766.3891881075433,
        "timestamp": "2025-12-20T22:39:11.018407+00:00",
        "meta_object_name": "COSMOS 2251 DEB",
        "meta_object_id": "1993-036GL",
        "meta_epoch": "2025-12-20T12:59:00.085344",
        "meta_mean_motion": 14.37106957,
        "meta_eccentricity": 0.00203049,
        "meta_inclination": 74.0389,
        "meta_ra_of_asc_node": 267.243,
        "meta_arg_of_pericenter": 346.761,
        "meta_mean_anomaly": 188.0991,
        "meta_ephemeris_type": 0,
        "meta_classification_type": "U",
        "meta_norad_cat_id": 34001,
        "meta_element_set_no": 999,
        "meta_rev_at_epoch": 88258,
        "meta_bstar": 0.00013220772,
        "meta_mean_motion_dot": 3.67e-06,
        "meta_mean_motion_ddot": 0,
        "tle_line1": "1 34001U 93036GL  25354.54097321  .00000367  00000+0  13221-3 0  9996",
        "tle_line2": "2 34001  74.0389 267.2430 0020304 346.7610 188.0991 14.37106957882581"
      },
      "geometry": {
        "type": "Point",
        "coordinates": [
          25.614394214798082,
          71.86230949031271
        ]
      }
    }
  ]
}